     2.10           NAVIGATION DATA                         RINEX VERSION / TYPE
SPIDER V4,0,0,3554                      2015 03 13 01:00    PGM / RUN BY / DATE 
   1.5832D-08 -7.4506D-09 -5.9605D-08  5.9605D-08           ION ALPHA           
   1.2288D+05 -6.5536D+04 -1.3107D+05 -6.5536D+04           ION BETA            
    1.862645149231D-09 1.332267629550D-14   233472     1832 DELTA-UTC: A0,A1,T,W
    16                                                      LEAP SECONDS        
                                                            END OF HEADER       
28 15 02 15 14 00  0.0 4.197028465569D-04 2.614797267597D-12 0.000000000000D+00
    5.900000000000D+01 3.062500000000D+00 4.013381627033D-09 1.914580905088D+00
   -1.583248376846D-07 1.969691843260D-02 1.884996891022D-06 5.153687402725D+03
    5.040000000000D+04 2.346932888031D-07-2.203615654306D+00-4.041939973831D-07
    9.882873108648D-01 3.548437500000D+02-1.671322205530D+00-7.969260806817D-09
    9.678974288718D-11 1.000000000000D+00 1.832000000000D+03 0.000000000000D+00
    2.000000000000D+00 0.000000000000D+00-1.117587089539D-08 5.900000000000D+01
    5.040000000000D+04 0.000000000000D+00
 7 15 02 15 14 00  0.0 4.404820501804D-04 3.183231456205D-12 0.000000000000D+00
    1.060000000000D+02 1.094687500000D+02 3.978022800055D-09-1.641337807942D+00
    5.574896931648D-06 8.003415656276D-03 9.069219231606D-06 5.153739154816D+03
    5.040000000000D+04-2.235174179077D-08 2.988818200686D+00-1.527369022369D-07
    9.715558582755D-01 2.122187500000D+02-2.754009136015D+00-7.735322604674D-09
    8.321775213371D-11 1.000000000000D+00 1.832000000000D+03 0.000000000000D+00
    2.000000000000D+00 0.000000000000D+00-1.117587089539D-08 1.060000000000D+02
    5.040000000000D+04 0.000000000000D+00
 9 15 02 15 14 00  0.0-8.765701204538D-05-1.136868377216D-11 0.000000000000D+00
    4.600000000000D+01-6.375000000000D+00 4.553403876173D-09 7.581616555390D-01
   -4.880130290985D-07 3.504453925416D-04 9.287148714066D-06 5.153654052734D+03
    5.040000000000D+04 1.117587089539D-08 1.913414308380D+00 5.215406417847D-08
    9.579122015053D-01 1.982187500000D+02 2.207024864930D+00-7.991403982999D-09
   -6.085967840797D-10 1.000000000000D+00 1.832000000000D+03 0.000000000000D+00
    2.000000000000D+00 0.000000000000D+00 4.656612873077D-10 4.600000000000D+01
    5.040000000000D+04 0.000000000000D+00
 2 15 02 15 14 00  0.0 5.481224507093D-04 2.273736754432D-12 0.000000000000D+00
    7.000000000000D+01-1.437500000000D+01 5.104498157493D-09-4.811499643873D-01
   -5.699694156647D-07 1.438057143241D-02 1.098401844501D-05 5.153768205643D+03
    5.040000000000D+04 1.862645149231D-09-2.065765173354D-01 2.644956111908D-07
    9.408812120505D-01 1.605000000000D+02-2.320707375989D+00-8.398206574611D-09
    5.057353424931D-10 1.000000000000D+00 1.832000000000D+03 0.000000000000D+00
    2.000000000000D+00 0.000000000000D+00-2.048909664154D-08 7.000000000000D+01
    5.040000000000D+04 0.000000000000D+00
20 15 02 15 14 00  0.0 2.900068648160D-04 4.092726157978D-12 0.000000000000D+00
    4.000000000000D+00 1.262500000000D+01 5.791312762682D-09 2.353820544268D+00
    5.606561899185D-07 5.824176594615D-03 5.489215254784D-06 5.155759876251D+03
    5.040000000000D+04-9.313225746155D-09 7.995350503127D-01-9.872019290924D-08
    9.263585068244D-01 2.538437500000D+02 1.235539887961D+00-8.542498264319D-09
    1.210764682957D-10 1.000000000000D+00 1.832000000000D+03 0.000000000000D+00
    2.000000000000D+00 0.000000000000D+00-8.381903171539D-09 4.000000000000D+00
    5.040000000000D+04 0.000000000000D+00
15 15 02 15 14 00  0.0-2.324325032532D-04-2.273736754432D-12 0.000000000000D+00
    9.000000000000D+00-5.437500000000D+00 5.274148229262D-09 3.035620011930D-01
   -2.346932888031D-07 7.096682908013D-03 8.998438715935D-06 5.153591180801D+03
    5.040000000000D+04 8.568167686462D-08 1.872262782689D+00 5.215406417847D-08
    9.338123128939D-01 1.871562500000D+02 3.745112853840D-01-8.418564512169D-09
   -6.843142164037D-10 1.000000000000D+00 1.832000000000D+03 0.000000000000D+00
    2.000000000000D+00 0.000000000000D+00-1.071020960808D-08 9.000000000000D+00
    5.040000000000D+04 0.000000000000D+00
15 15 02 15 16 00  0.0-2.324483357370D-04-2.273736754432D-12 0.000000000000D+00
    3.300000000000D+01-5.312500000000D+00 5.362366106709D-09 1.353852230454D+00
    5.587935447693D-09 7.096562883817D-03 9.087845683098D-06 5.153590505600D+03
    5.760000000000D+04 5.029141902924D-08 1.872202257379D+00 1.192092895508D-07
    9.338073609162D-01 1.907500000000D+02 3.744581419589D-01-8.399992701413D-09
   -6.735995095042D-10 1.000000000000D+00 1.832000000000D+03 0.000000000000D+00
    2.000000000000D+00 0.000000000000D+00-1.071020960808D-08 3.300000000000D+01
    5.760000000000D+04 0.000000000000D+00
 2 15 02 15 16 00  0.0 5.481387488544D-04 2.273736754432D-12 0.000000000000D+00
    8.900000000000D+01-1.018750000000D+01 4.991993485248D-09 5.689796218394D-01
   -5.774199962616D-07 1.438119879458D-02 1.096166670322D-05 5.153769437790D+03
    5.760000000000D+04-2.160668373108D-07-2.066362672985D-01 2.104789018631D-07
    9.408847625527D-01 1.609062500000D+02-2.320710794828D+00-8.332133205613D-09
    3.846588880752D-10 1.000000000000D+00 1.832000000000D+03 0.000000000000D+00
    2.000000000000D+00 0.000000000000D+00-2.048909664154D-08 8.900000000000D+01
    5.760000000000D+04 0.000000000000D+00
 5 15 02 15 16 00  0.0-2.787075936794D-04 5.115907697473D-12 0.000000000000D+00
    6.200000000000D+01 7.437500000000D+00 5.408082426328D-09 2.914882812501D+00
    3.818422555923D-07 4.043517867103D-03 5.757436156273D-06 5.153762605667D+03
    5.760000000000D+04-8.381903171539D-08 8.631566071030D-01-2.607703208923D-08
    9.465707813411D-01 2.620312500000D+02 4.210132657153D-01-8.340704127363D-09
    1.139333141720D-10 1.000000000000D+00 1.832000000000D+03 0.000000000000D+00
    2.000000000000D+00 0.000000000000D+00-1.071020960808D-08 6.200000000000D+01
    5.760000000000D+04 0.000000000000D+00
 7 15 02 15 16 00  0.0 4.405048675835D-04 3.183231456205D-12 0.000000000000D+00
    1.070000000000D+02 9.753125000000D+01 4.038382517280D-09-5.909963487530D-01
    4.984438419342D-06 8.003646391444D-03 9.352341294289D-06 5.153742151260D+03
    5.760000000000D+04 1.452863216400D-07 2.988762824848D+00 5.960464477539D-08
    9.715551867961D-01 2.058125000000D+02-2.754215565459D+00-7.934259471654D-09
   -6.643133959594D-11 1.000000000000D+00 1.832000000000D+03 0.000000000000D+00
    2.000000000000D+00 0.000000000000D+00-1.117587089539D-08 1.070000000000D+02
    5.760000000000D+04 0.000000000000D+00
10 15 02 15 16 00  0.0-1.634708605707D-04-1.705302565824D-12 0.000000000000D+00
    1.270000000000D+02 1.178125000000D+01 5.455941476384D-09-3.010197383512D+00
    4.209578037262D-07 1.456173160113D-02 5.485489964485D-06 5.153655498505D+03
    5.760000000000D+04 8.381903171539D-08 8.788432377484D-01-3.315508365631D-07
    9.413496164757D-01 2.620000000000D+02 9.219880902647D-01-8.321418221158D-09
    1.389343640135D-10 1.000000000000D+00 1.832000000000D+03 0.000000000000D+00
    2.000000000000D+00 0.000000000000D+00-3.259629011154D-09 1.270000000000D+02
    5.760000000000D+04 0.000000000000D+00
13 15 02 15 16 00  0.0-8.848588913679D-05-3.524291969370D-12 0.000000000000D+00
    7.400000000000D+01 1.031250000000D+01 4.305893863688D-09 1.580045357174D-01
    5.550682544708D-07 5.332691012882D-03 1.011230051517D-05 5.153686283112D+03
    5.760000000000D+04-5.587935447693D-09 2.026931073747D+00-2.607703208923D-08
    9.747575217862D-01 1.939062500000D+02 2.061867100858D+00-7.880328389831D-09
   -5.335936692497D-10 1.000000000000D+00 1.832000000000D+03 0.000000000000D+00
    2.000000000000D+00 0.000000000000D+00-1.164153218269D-08 7.400000000000D+01
    5.760000000000D+04 0.000000000000D+00
20 15 02 15 16 00  0.0 2.900362014771D-04 4.092726157978D-12 0.000000000000D+00
    2.500000000000D+01 1.918750000000D+01 5.814170922491D-09-2.880504830120D+00
    8.977949619293D-07 5.823310581036D-03 5.550682544708D-06 5.155761604309D+03
    5.760000000000D+04 1.750886440277D-07 7.994725603040D-01-6.705522537231D-08
    9.263594928312D-01 2.526250000000D+02 1.235595629529D+00-8.623930902729D-09
    2.460816828087D-10 1.000000000000D+00 1.832000000000D+03 0.000000000000D+00
    2.000000000000D+00 0.000000000000D+00-8.381903171539D-09 2.500000000000D+01
    5.760000000000D+04 0.000000000000D+00
28 15 02 15 16 00  0.0 4.197219386697D-04 2.614797267597D-12 0.000000000000D+00
    6.000000000000D+01 2.100000000000D+01 3.929092162736D-09 2.964659216036D+00
    1.059845089912D-06 1.969516417012D-02 1.722946763039D-06 5.153691955566D+03
    5.760000000000D+04 2.514570951462D-07-2.203671624088D+00-1.229345798492D-07
    9.882882032448D-01 3.582812500000D+02-1.671234093974D+00-7.812468005852D-09
    3.500145659419D-11 1.000000000000D+00 1.832000000000D+03 0.000000000000D+00
    2.000000000000D+00 0.000000000000D+00-1.117587089539D-08 6.000000000000D+01
    5.760000000000D+04 0.000000000000D+00
30 15 02 15 16 00  0.0-8.452683687210D-05 1.364242052659D-12 0.000000000000D+00
    5.100000000000D+01 1.009687500000D+02 4.292321609256D-09-4.911643013418D-01
    5.163252353668D-06 1.002781558782D-03 9.128823876381D-06 5.153779922485D+03
    5.760000000000D+04 1.303851604462D-08 3.039485947041D+00-3.725290298462D-08
    9.572619183270D-01 2.028750000000D+02 2.935527459770D+00-8.015334174161D-09
   -2.750114545813D-11 1.000000000000D+00 1.832000000000D+03 0.000000000000D+00
    2.000000000000D+00 0.000000000000D+00 3.259629011154D-09 5.100000000000D+01
    5.760000000000D+04 0.000000000000D+00
